KUIPER-00249            
1 67154U 25301X   26167.73607713  .00000509  00000+0  95805-4 0  9994
2 67154  51.9008 337.6608 0000675 108.4040 251.6996 14.79928948 28533
KUIPER-00250            
1 67155U 25301Y   26167.82117932  .00000611  00000+0  10921-3 0  9993
2 67155  51.8997 352.2389 0000666 103.3286 256.7750 14.79931214 28371
KUIPER-00251            
1 67156U 25301Z   26168.17228584 -.00003232  00000+0 -39491-3 0  9996
2 67156  51.9024 338.2513 0000620 203.2865 156.8070 14.79962579 28755
KUIPER-00252            
1 67157U 25301AA  26168.16962347  .00001803  00000+0  26551-3 0  9991
2 67157  51.9011 340.7131 0000734 107.0344 253.0699 14.79930534 28534
KUIPER-00261            
1 67158U 25301AB  26168.19260750  .00002061  00000+0  29928-3 0  9992
2 67158  51.9017 350.6628 0000709  99.5261 260.5781 14.79928701 28399
KUIPER-00265            
1 67159U 25301AC  26167.73747461  .00000809  00000+0  13505-3 0  9993
2 67159  51.9025   7.6469 0000520 106.7334 253.3685 14.79932674 28155
GSAT0233 (GALILEO 33)   
1 67160U 25302A   26167.64345580 -.00000013  00000+0  00000+0 0  9992
2 67160  54.3363 102.1464 0000828 225.8121 317.0215  1.70473859  3111
GSAT0234 (GALILEO 34)   
1 67162U 25302C   26165.58025771 -.00000011  00000+0  00000+0 0  9990
2 67162  54.3363 102.2045 0003043 308.4769 228.2268  1.70473883  3137
STARLINK-35755          
1 67163U 25303A   26167.54285513  .00016062  00000+0  59164-3 0  9993
2 67163  43.0031 112.4312 0001031 268.5351  91.5382 15.27596756 27858
STARLINK-36201          
1 67164U 25303B   26168.10434622  .00019023  00000+0  69798-3 0  9998
2 67164  43.0034 108.9043 0000804 250.1461 109.9304 15.27628299 27945
STARLINK-36186          
1 67165U 25303C   26168.10820418  .00014549  00000+0  53694-3 0  9997
2 67165  42.9985 108.9299 0003972 277.0050  83.0350 15.27589575 27949
STARLINK-36174          
1 67166U 25303D   26167.53257136  .00021448  00000+0  78618-3 0  9994
2 67166  42.9966 112.3521 0002022 272.2736  87.7884 15.27599772 27852
STARLINK-36198          
1 67167U 25303E   26167.83395748  .00015804  00000+0  58253-3 0  9992
2 67167  43.0024 111.1770 0001607 260.4216  99.6454 15.27583511 27896
STARLINK-35903          
1 67168U 25303F   26167.53000200  .00020943  00000+0  76797-3 0  9999
2 67168  43.0016 112.3331 0001969 271.3061  88.7565 15.27598563 27855
STARLINK-35839          
1 67169U 25303G   26168.16668980  .00016353  00000+0  60276-3 0  9990
2 67169  43.0034 109.3346 0001475 275.5313 102.3242 15.27563707  5916
STARLINK-35863          
1 67170U 25303H   26167.89162775  .00026950  00000+0  98569-3 0  9992
2 67170  43.0030 110.7530 0001546 272.8174  87.2501 15.27566829 27909
STARLINK-35771          
1 67171U 25303J   26167.56983111  .00017444  00000+0  64131-3 0  9998
2 67171  43.0072 112.6368 0004117 263.5968  96.4414 15.27606975 27857
STARLINK-35762          
1 67172U 25303K   26168.02498194  .00021936  00000+0  80321-3 0  9993
2 67172  42.9979 110.0321 0000807 235.9371 124.1404 15.27624709 27927
STARLINK-36183          
1 67173U 25303L   26168.14803556  .00014078  00000+0  51989-3 0  9996
2 67173  43.0028 109.2355 0000685 290.2231  69.8547 15.27595429 27946
STARLINK-36210          
1 67174U 25303M   26168.14161058  .00014099  00000+0  52059-3 0  9993
2 67174  43.0001 109.1847 0000974 265.4570  94.6171 15.27597681 27945
STARLINK-35756          
1 67175U 25303N   26168.13903455  .00027145  00000+0  99295-3 0  9997
2 67175  42.9968 109.1642 0001753 266.5040  93.5611 15.27558426 27940
STARLINK-35785          
1 67176U 25303P   26168.13390288  .00020248  00000+0  74293-3 0  9990
2 67176  43.0058 109.1236 0000479 252.0231 108.0569 15.27597381 27945
STARLINK-35853          
1 67177U 25303Q   26168.13775708  .00013977  00000+0  51633-3 0  9999
2 67177  43.0060 109.1488 0000213 277.9030  82.1797 15.27589622 27941
STARLINK-35878          
1 67178U 25303R   26168.13003877  .00018270  00000+0  67102-3 0  9990
2 67178  43.0035 109.0937 0000397 174.0016 186.0841 15.27617725 27946
STARLINK-35793          
1 67179U 25303S   26167.53899846  .00019509  00000+0  71622-3 0  9991
2 67179  42.9992 112.3952 0001736 270.0237  90.0416 15.27596653 27859
STARLINK-35876          
1 67180U 25303T   26167.53771272  .00018929  00000+0  69523-3 0  9997
2 67180  42.9963 112.3845 0001835 278.0091  82.0552 15.27597167 27859
STARLINK-35766          
1 67181U 25303U   26167.13512285  .00015480  00000+0  57038-3 0  9998
2 67181  43.0024 114.5254 0001928 264.9674  95.0958 15.27607853 27793
STARLINK-35782          
1 67182U 25303V   26167.12483453  .00015280  00000+0  56342-3 0  9997
2 67182  43.0058 114.4481 0002982 277.8555  82.1958 15.27590324 27795
STARLINK-35719          
1 67183U 25303W   26168.11206118  .00014363  00000+0  53013-3 0  9992
2 67183  43.0000 108.9542 0001409 258.4084 101.6609 15.27600149 27948
STARLINK-35910          
1 67184U 25303X   26168.10177904  .00015272  00000+0  56304-3 0  9998
2 67184  43.0062 108.8805 0004782 280.1334  79.8978 15.27590912 27946
