OBJECT_NAME,OBJECT_ID,EPOCH,MEAN_MOTION,ECCENTRICITY,INCLINATION,RA_OF_ASC_NODE,ARG_OF_PERICENTER,MEAN_ANOMALY,EPHEMERIS_TYPE,CLASSIFICATION_TYPE,NORAD_CAT_ID,ELEMENT_SET_NO,REV_AT_EPOCH,BSTAR,MEAN_MOTION_DOT,MEAN_MOTION_DDOT
KUIPER-00249,2025-301X,2026-06-16T17:39:57.064032,14.79928948,.0000675,51.9008,337.6608,108.4040,251.6996,0,U,67154,999,2853,.95805E-4,.509E-5,0
KUIPER-00250,2025-301Y,2026-06-16T19:42:29.893248,14.79931214,.0000666,51.8997,352.2389,103.3286,256.7750,0,U,67155,999,2837,.10921E-3,.611E-5,0
KUIPER-00251,2025-301Z,2026-06-17T04:08:05.496576,14.79962579,.000062,51.9024,338.2513,203.2865,156.8070,0,U,67156,999,2875,-.39491E-3,-.3232E-4,0
KUIPER-00252,2025-301AA,2026-06-17T04:04:15.467808,14.79930534,.0000734,51.9011,340.7131,107.0344,253.0699,0,U,67157,999,2853,.26551E-3,.1803E-4,0
KUIPER-00261,2025-301AB,2026-06-17T04:37:21.288000,14.79928701,.0000709,51.9017,350.6628,99.5261,260.5781,0,U,67158,999,2839,.29928E-3,.2061E-4,0
KUIPER-00265,2025-301AC,2026-06-16T17:41:57.806304,14.79932674,.000052,51.9025,7.6469,106.7334,253.3685,0,U,67159,999,2815,.13505E-3,.809E-5,0
GSAT0233 (GALILEO 33),2025-302A,2026-06-16T15:26:34.581120,1.70473859,.0000828,54.3363,102.1464,225.8121,317.0215,0,U,67160,999,311,0,-.13E-6,0
GSAT0234 (GALILEO 34),2025-302C,2026-06-14T13:55:34.266144,1.70473883,.0003043,54.3363,102.2045,308.4769,228.2268,0,U,67162,999,313,0,-.11E-6,0
STARLINK-35755,2025-303A,2026-06-16T13:01:42.683232,15.27596756,.0001031,43.0031,112.4312,268.5351,91.5382,0,U,67163,999,2785,.59164E-3,.16062E-3,0
STARLINK-36201,2025-303B,2026-06-17T02:30:15.513408,15.27628299,.0000804,43.0034,108.9043,250.1461,109.9304,0,U,67164,999,2794,.69798E-3,.19023E-3,0
STARLINK-36186,2025-303C,2026-06-17T02:35:48.841152,15.27589575,.0003972,42.9985,108.9299,277.0050,83.0350,0,U,67165,999,2794,.53694E-3,.14549E-3,0
STARLINK-36174,2025-303D,2026-06-16T12:46:54.165504,15.27599772,.00020227,42.9966,112.3521,272.2736,87.7884,0,U,67166,999,2785,.7861767E-3,.21448E-3,0
STARLINK-36198,2025-303E,2026-06-16T20:00:53.926272,15.27583511,.0001607,43.0024,111.1770,260.4216,99.6454,0,U,67167,999,2789,.58253E-3,.15804E-3,0
STARLINK-35903,2025-303F,2026-06-16T12:43:12.172800,15.27598563,.00019697,43.0016,112.3331,271.3061,88.7565,0,U,67168,999,2785,.76797026E-3,.20943E-3,0
STARLINK-35839,2025-303G,2026-06-17T04:00:01.998720,15.27563707,.0001475,43.0034,109.3346,275.5313,102.3242,0,U,67169,999,591,.60276E-3,.16353E-3,0
STARLINK-35863,2025-303H,2026-06-16T21:23:56.637600,15.27566829,.0001546,43.0030,110.7530,272.8174,87.2501,0,U,67170,999,2790,.98569E-3,.2695E-3,0
STARLINK-35771,2025-303J,2026-06-16T13:40:33.407904,15.27606975,.0004117,43.0072,112.6368,263.5968,96.4414,0,U,67171,999,2785,.64131E-3,.17444E-3,0
STARLINK-35762,2025-303K,2026-06-17T00:35:58.439616,15.27624709,.0000807,42.9979,110.0321,235.9371,124.1404,0,U,67172,999,2792,.80321E-3,.21936E-3,0
STARLINK-36183,2025-303L,2026-06-17T03:33:10.272384,15.27595429,.0000685,43.0028,109.2355,290.2231,69.8547,0,U,67173,999,2794,.51989E-3,.14078E-3,0
STARLINK-36210,2025-303M,2026-06-17T03:23:55.154112,15.27597681,.0000974,43.0001,109.1847,265.4570,94.6171,0,U,67174,999,2794,.52059E-3,.14099E-3,0
STARLINK-35756,2025-303N,2026-06-17T03:20:12.585120,15.27558426,.0001753,42.9968,109.1642,266.5040,93.5611,0,U,67175,999,2794,.99295E-3,.27145E-3,0
STARLINK-35785,2025-303P,2026-06-17T03:12:49.208832,15.27597381,.0000479,43.0058,109.1236,252.0231,108.0569,0,U,67176,999,2794,.74293E-3,.20248E-3,0
STARLINK-35853,2025-303Q,2026-06-17T03:18:22.211712,15.27589622,.0000213,43.0060,109.1488,277.9030,82.1797,0,U,67177,999,2794,.51633E-3,.13977E-3,0
STARLINK-35878,2025-303R,2026-06-17T03:07:15.349728,15.27617725,.0000397,43.0035,109.0937,174.0016,186.0841,0,U,67178,999,2794,.67102E-3,.1827E-3,0
STARLINK-35793,2025-303S,2026-06-16T12:56:09.466944,15.27596653,.0001736,42.9992,112.3952,270.0237,90.0416,0,U,67179,999,2785,.71622E-3,.19509E-3,0
STARLINK-35876,2025-303T,2026-06-16T12:54:18.379008,15.27597167,.0001835,42.9963,112.3845,278.0091,82.0552,0,U,67180,999,2785,.69523E-3,.18929E-3,0
STARLINK-35766,2025-303U,2026-06-16T03:14:34.614240,15.27607853,.00019282,43.0024,114.5254,264.9674,95.0958,0,U,67181,999,2779,.57037654E-3,.1548E-3,0
STARLINK-35782,2025-303V,2026-06-16T02:59:45.703392,15.27590324,.00029827,43.0058,114.4481,277.8555,82.1958,0,U,67182,999,2779,.56342083E-3,.1528E-3,0
STARLINK-35719,2025-303W,2026-06-17T02:41:22.085952,15.27600149,.0001409,43.0000,108.9542,258.4084,101.6609,0,U,67183,999,2794,.53013E-3,.14363E-3,0
STARLINK-35910,2025-303X,2026-06-17T02:26:33.709056,15.27590912,.0004782,43.0062,108.8805,280.1334,79.8978,0,U,67184,999,2794,.56304E-3,.15272E-3,0
